H1 CPF 01  gfz 2021 06 02 12  6532 tandemx   
H2 1003001  6202 36605    2021 06 02 12 59 42 2021 06 07 00 00 42   120 1 1  0 0 0
H9
10 0 59368  10062.000000  0    1246966.876   2633371.139   6231310.328
10 0 59368  10182.000000  0    1852135.226   3185038.244   5810035.173
10 0 59368  10302.000000  0    2434039.169   3670697.272   5286579.409
10 0 59368  10422.000000  0    2981276.383   4082350.833   4670114.928
10 0 59368  10542.000000  0    3482916.871   4413484.824   3971457.451
10 0 59368  10662.000000  0    3928722.880   4659176.233   3202881.764
10 0 59368  10782.000000  0    4309364.026   4816172.994   2377908.489
10 0 59368  10902.000000  0    4616615.394   4882937.347   1511061.115
10 0 59368  11022.000000  0    4843535.204   4859655.947    617607.329
10 0 59368  11142.000000  0    4984622.136   4748215.501   -286718.117
10 0 59368  11262.000000  0    5035940.704   4552141.260  -1186000.577
10 0 59368  11382.000000  0    4995215.609   4276502.658  -2064433.287
10 0 59368  11502.000000  0    4861893.662   3927789.215  -2906602.075
10 0 59368  11622.000000  0    4637170.398   3513759.211  -3697760.796
10 0 59368  11742.000000  0    4323980.793   3043266.082  -4424091.347
10 0 59368  11862.000000  0    3926955.832   2526066.377  -5072942.946
10 0 59368  11982.000000  0    3452347.258   1972614.259  -5633046.542
10 0 59368  12102.000000  0    2907921.726   1393848.396  -6094701.923
10 0 59368  12222.000000  0    2302826.893    800975.612  -6449934.661
10 0 59368  12342.000000  0    1647433.913    205255.915  -6692621.452
10 0 59368  12462.000000  0     953160.277   -382207.138  -6818585.563
10 0 59368  12582.000000  0     232272.101   -950669.416  -6825662.023
10 0 59368  12702.000000  0    -502328.627  -1489937.583  -6713728.716
10 0 59368  12822.000000  0   -1237328.507  -1990546.368  -6484708.494
10 0 59368  12942.000000  0   -1959238.514  -2443921.618  -6142540.592
10 0 59368  13062.000000  0   -2654635.946  -2842525.473  -5693119.517
10 0 59368  13182.000000  0   -3310409.673  -3179981.892  -5144204.608
10 0 59368  13302.000000  0   -3914007.413  -3451182.116  -4505298.399
10 0 59368  13422.000000  0   -4453678.344  -3652365.777  -3787492.457
10 0 59368  13542.000000  0   -4918706.360  -3781176.347  -3003284.446
10 0 59368  13662.000000  0   -5299629.644  -3836689.791  -2166367.049
10 0 59368  13782.000000  0   -5588440.415  -3819414.578  -1291391.388
10 0 59368  13902.000000  0   -5778759.626  -3731262.573   -393709.703
10 0 59368  14022.000000  0   -5865982.138  -3575491.258    510898.264
10 0 59368  14142.000000  0   -5847388.471  -3356618.592   1406510.140
10 0 59368  14262.000000  0   -5722217.789  -3080311.093   2277351.442
10 0 59368  14382.000000  0   -5491700.275  -2753247.996   3108082.205
10 0 59368  14502.000000  0   -5159050.082  -2382967.185   3884074.538
10 0 59368  14622.000000  0   -4729417.497  -1977694.463   4591676.640
10 0 59368  14742.000000  0   -4209801.878  -1546161.466   5218454.357
10 0 59368  14862.000000  0   -3608930.454  -1097418.724   5753407.738
10 0 59368  14982.000000  0   -2937105.055   -640646.375   6187161.841
10 0 59368  15102.000000  0   -2206017.862   -184965.733   6512127.090
10 0 59368  15222.000000  0   -1428541.237    260742.472   6722624.936
10 0 59368  15342.000000  0    -618498.179    688009.101   6814980.605
10 0 59368  15462.000000  0     209584.003   1088936.338   6787583.220
10 0 59368  15582.000000  0    1040733.559   1456343.145   6640912.131
10 0 59368  15702.000000  0    1859804.309   1783894.248   6377528.967
10 0 59368  15822.000000  0    2651750.794   2066209.451   6002035.298
10 0 59368  15942.000000  0    3401905.244   2298952.722   5520998.028
10 0 59368  16062.000000  0    4096252.563   2478899.611   4942840.302
10 0 59368  16182.000000  0    4721695.839   2603982.023   4277699.778
10 0 59368  16302.000000  0    5266310.304   2673309.778   3537257.232
10 0 59368  16422.000000  0    5719581.428   2687166.714   2734532.073
10 0 59368  16542.000000  0    6072613.773   2646981.114   1883652.150
10 0 59368  16662.000000  0    6318314.131   2555273.532    999602.514
10 0 59368  16782.000000  0    6451539.875   2415580.421     97954.340
10 0 59368  16902.000000  0    6469207.583   2232356.209   -805418.702
10 0 59368  17022.000000  0    6370358.450   2010855.880  -1694628.588
10 0 59368  17142.000000  0    6156184.256   1757003.134  -2554058.448
10 0 59368  17262.000000  0    5830009.947   1477245.557  -3368644.464
10 0 59368  17382.000000  0    5397232.511   1178400.444  -4124143.360
10 0 59368  17502.000000  0    4865219.145    867496.403  -4807381.345
10 0 59368  17622.000000  0    4243168.943    551615.225  -5406478.477
10 0 59368  17742.000000  0    3541943.470    237737.142  -5911046.924
10 0 59368  17862.000000  0    2773868.830    -67406.973  -6312361.301
10 0 59368  17982.000000  0    1952513.163   -357474.115  -6603498.029
10 0 59368  18102.000000  0    1092446.574   -626635.800  -6779443.317
10 0 59368  18222.000000  0     208984.830   -869690.907  -6837171.625
10 0 59368  18342.000000  0    -682079.214  -1082162.227  -6775690.681
10 0 59368  18462.000000  0   -1564750.458  -1260376.355  -6596056.618
10 0 59368  18582.000000  0   -2423112.391  -1401525.866  -6301358.221
10 0 59368  18702.000000  0   -3241607.534  -1503712.636  -5896668.313
10 0 59368  18822.000000  0   -4005314.190  -1565972.374  -5388966.762
10 0 59368  18942.000000  0   -4700219.378  -1588279.941  -4787032.230
10 0 59368  19062.000000  0   -5313479.587  -1571534.499  -4101301.387
10 0 59368  19182.000000  0   -5833665.287  -1517524.982  -3343698.792
10 0 59368  19302.000000  0   -6250984.635  -1428876.335  -2527437.320
10 0 59368  19422.000000  0   -6557479.510  -1308976.800  -1666791.818
10 0 59368  19542.000000  0   -6747189.267  -1161888.071   -776850.118
10 0 59368  19662.000000  0   -6816277.777   -992239.949    126755.057
10 0 59368  19782.000000  0   -6763118.529   -805111.078   1028127.334
10 0 59368  19902.000000  0   -6588335.758   -605900.528   1911394.623
10 0 59368  20022.000000  0   -6294800.052   -400192.725   2760997.791
10 0 59368  20142.000000  0   -5887578.662   -193618.882   3561973.426
10 0 59368  20262.000000  0   -5373840.984      8281.411   4300224.416
10 0 59368  20382.000000  0   -4762722.367    200193.908   4962771.569
10 0 59368  20502.000000  0   -4065151.409    377156.519   5537981.343
10 0 59368  20622.000000  0   -3293645.529    534676.247   6015767.777
10 0 59368  20742.000000  0   -2462077.443    668832.767   6387765.210
10 0 59368  20862.000000  0   -1585419.260    776367.023   6647469.363
10 0 59368  20982.000000  0    -679467.936    854754.156   6790345.073
10 0 59368  21102.000000  0     239440.723    902258.307   6813899.413
10 0 59368  21222.000000  0    1154725.850    917968.773   6717722.060
10 0 59368  21342.000000  0    2049859.527    901817.544   6503492.161
10 0 59368  21462.000000  0    2908664.296    854577.301   6174951.102
10 0 59368  21582.000000  0    3715606.616    777839.938   5737841.985
10 0 59368  21702.000000  0    4456080.805    673976.277   5199814.104
10 0 59368  21822.000000  0    5116677.771    546076.985   4570295.597
10 0 59368  21942.000000  0    5685436.231    397875.799   3860334.647
10 0 59368  22062.000000  0    6152069.696    233657.919   3082408.343
10 0 59368  22182.000000  0    6508162.476     58154.735   2250202.819
10 0 59368  22302.000000  0    6747330.235   -123574.602   1378370.609
10 0 59368  22422.000000  0    6865343.090   -306269.573    482267.589
10 0 59368  22542.000000  0    6860205.465   -484599.846   -422325.099
10 0 59368  22662.000000  0    6732190.733   -653299.824  -1319488.665
10 0 59368  22782.000000  0    6483829.472   -807301.816  -2193455.420
10 0 59368  22902.000000  0    6119852.336   -941864.369  -3028893.205
10 0 59368  23022.000000  0    5647089.804  -1052692.800  -3811178.627
10 0 59368  23142.000000  0    5074331.823  -1136048.572  -4526654.028
10 0 59368  23262.000000  0    4412151.952  -1188844.746  -5162862.697
10 0 59368  23382.000000  0    3672701.445  -1208726.505  -5708759.514
10 0 59368  23502.000000  0    2869476.938  -1194135.294  -6154893.557
10 0 59368  23622.000000  0    2017068.537  -1144354.175  -6493560.321
10 0 59368  23742.000000  0    1130893.182  -1059533.918  -6718923.613
10 0 59368  23862.000000  0     226917.785   -940701.456  -6827105.925
10 0 59368  23982.000000  0    -678623.848   -789748.894  -6816247.772
10 0 59368  24102.000000  0   -1569515.472   -609403.981  -6686535.975
10 0 59368  24222.000000  0   -2429842.493   -403181.861  -6440200.782
10 0 59368  24342.000000  0   -3244269.523   -175319.314  -6081480.386
10 0 59368  24462.000000  0   -3998308.368     69307.777  -5616556.782
10 0 59368  24582.000000  0   -4678576.066    325282.987  -5053460.156
10 0 59368  24702.000000  0   -5273035.024    586761.627  -4401941.599
10 0 59368  24822.000000  0   -5771214.008    847596.097  -3673316.496
10 0 59368  24942.000000  0   -6164403.432   1101472.150  -2880276.908
10 0 59368  25062.000000  0   -6445820.003   1342052.361  -2036676.328
10 0 59368  25182.000000  0   -6610736.539   1563123.439  -1157290.071
10 0 59368  25302.000000  0   -6656573.972   1758745.122   -257554.418
10 0 59368  25422.000000  0   -6582949.776   1923394.643    646710.962
10 0 59368  25542.000000  0   -6391682.102   2052104.606   1539588.330
10 0 59368  25662.000000  0   -6086750.490   2140591.037   2405350.842
10 0 59368  25782.000000  0   -5674212.386   2185367.414   3228748.668
10 0 59368  25902.000000  0   -5162077.879   2183840.939   3995285.518
10 0 59368  26022.000000  0   -4560145.859   2134389.235   4691478.500
10 0 59368  26142.000000  0   -3879807.629   2036416.198   5305096.239
10 0 59368  26262.000000  0   -3133823.381   1890385.957   5825372.334
10 0 59368  26382.000000  0   -2336075.166   1697834.568   6243191.941
10 0 59368  26502.000000  0   -1501301.053   1461358.094   6551246.319
99
